[{"OBJECT_NAME":"STARLINK-1216","OBJECT_ID":"2020-012H","EPOCH":"2024-10-27T05:38:34.462176","MEAN_MOTION":15.06416628,"ECCENTRICITY":0.000127,"INCLINATION":53.0525,"RA_OF_ASC_NODE":124.2683,"ARG_OF_PERICENTER":76.0712,"MEAN_ANOMALY":284.0418,"EPHEMERIS_TYPE":0,"CLASSIFICATION_TYPE":"U","NORAD_CAT_ID":45185,"ELEMENT_SET_NO":999,"REV_AT_EPOCH":25906,"BSTAR":0.0012578,"MEAN_MOTION_DOT":0.00018511,"MEAN_MOTION_DDOT":0},{"OBJECT_NAME":"STARLINK-1224","OBJECT_ID":"2020-012J","EPOCH":"2024-10-27T05:59:47.547168","MEAN_MOTION":15.06419137,"ECCENTRICITY":0.0001399,"INCLINATION":53.0531,"RA_OF_ASC_NODE":124.202,"ARG_OF_PERICENTER":82.8695,"MEAN_ANOMALY":277.2453,"EPHEMERIS_TYPE":0,"CLASSIFICATION_TYPE":"U","NORAD_CAT_ID":45186,"ELEMENT_SET_NO":999,"REV_AT_EPOCH":25965,"BSTAR":0.00077165,"MEAN_MOTION_DOT":0.00011237,"MEAN_MOTION_DDOT":0},{"OBJECT_NAME":"STARLINK-1225","OBJECT_ID":"2020-012K","EPOCH":"2024-10-27T12:27:14.807232","MEAN_MOTION":15.06397919,"ECCENTRICITY":0.0001237,"INCLINATION":53.0532,"RA_OF_ASC_NODE":122.9939,"ARG_OF_PERICENTER":90.6114,"MEAN_ANOMALY":269.5017,"EPHEMERIS_TYPE":0,"CLASSIFICATION_TYPE":"U","NORAD_CAT_ID":45187,"ELEMENT_SET_NO":999,"REV_AT_EPOCH":25974,"BSTAR":0.00051367,"MEAN_MOTION_DOT":7.377e-5,"MEAN_MOTION_DDOT":0},{"OBJECT_NAME":"STARLINK-1228","OBJECT_ID":"2020-012L","EPOCH":"2024-10-27T18:47:58.604352","MEAN_MOTION":15.06418879,"ECCENTRICITY":0.0001259,"INCLINATION":53.0534,"RA_OF_ASC_NODE":81.4864,"ARG_OF_PERICENTER":94.3455,"MEAN_ANOMALY":265.7678,"EPHEMERIS_TYPE":0,"CLASSIFICATION_TYPE":"U","NORAD_CAT_ID":45188,"ELEMENT_SET_NO":999,"REV_AT_EPOCH":25936,"BSTAR":0.00068538,"MEAN_MOTION_DOT":9.947e-5,"MEAN_MOTION_DDOT":0},{"OBJECT_NAME":"STARLINK-1230","OBJECT_ID":"2020-012M","EPOCH":"2024-10-27T18:54:42.148512","MEAN_MOTION":15.06414766,"ECCENTRICITY":0.0001489,"INCLINATION":53.0546,"RA_OF_ASC_NODE":121.7871,"ARG_OF_PERICENTER":100.1654,"MEAN_ANOMALY":259.9503,"EPHEMERIS_TYPE":0,"CLASSIFICATION_TYPE":"U","NORAD_CAT_ID":45189,"ELEMENT_SET_NO":999,"REV_AT_EPOCH":25885,"BSTAR":0.000882,"MEAN_MOTION_DOT":0.00012885,"MEAN_MOTION_DDOT":0},{"OBJECT_NAME":"STARLINK-1234","OBJECT_ID":"2020-012N","EPOCH":"2024-10-27T09:48:01.022688","MEAN_MOTION":15.06419627,"ECCENTRICITY":0.0001403,"INCLINATION":53.0542,"RA_OF_ASC_NODE":83.4885,"ARG_OF_PERICENTER":79.2508,"MEAN_ANOMALY":280.8639,"EPHEMERIS_TYPE":0,"CLASSIFICATION_TYPE":"U","NORAD_CAT_ID":45190,"ELEMENT_SET_NO":999,"REV_AT_EPOCH":26019,"BSTAR":0.00079166,"MEAN_MOTION_DOT":0.00011536,"MEAN_MOTION_DDOT":0},{"OBJECT_NAME":"STARLINK-1236","OBJECT_ID":"2020-012P","EPOCH":"2024-10-27T12:43:09.611904","MEAN_MOTION":15.06416057,"ECCENTRICITY":0.0001301,"INCLINATION":53.0544,"RA_OF_ASC_NODE":122.944,"ARG_OF_PERICENTER":88.5882,"MEAN_ANOMALY":271.5256,"EPHEMERIS_TYPE":0,"CLASSIFICATION_TYPE":"U","NORAD_CAT_ID":45191,"ELEMENT_SET_NO":999,"REV_AT_EPOCH":25696,"BSTAR":0.00025901,"MEAN_MOTION_DOT":3.58e-5,"MEAN_MOTION_DDOT":0},{"OBJECT_NAME":"STARLINK-1237","OBJECT_ID":"2020-012Q","EPOCH":"2024-10-27T12:06:00.777024","MEAN_MOTION":15.06404302,"ECCENTRICITY":0.0001437,"INCLINATION":53.0541,"RA_OF_ASC_NODE":123.0584,"ARG_OF_PERICENTER":100.3115,"MEAN_ANOMALY":259.8036,"EPHEMERIS_TYPE":0,"CLASSIFICATION_TYPE":"U","NORAD_CAT_ID":45192,"ELEMENT_SET_NO":999,"REV_AT_EPOCH":25975,"BSTAR":0.00013455,"MEAN_MOTION_DOT":1.723e-5,"MEAN_MOTION_DDOT":0},{"OBJECT_NAME":"STARLINK-1240","OBJECT_ID":"2020-012S","EPOCH":"2024-10-27T18:17:33.280800","MEAN_MOTION":15.06418588,"ECCENTRICITY":0.0001088,"INCLINATION":53.0511,"RA_OF_ASC_NODE":121.899,"ARG_OF_PERICENTER":103.3933,"MEAN_ANOMALY":256.7177,"EPHEMERIS_TYPE":0,"CLASSIFICATION_TYPE":"U","NORAD_CAT_ID":45194,"ELEMENT_SET_NO":999,"REV_AT_EPOCH":25885,"BSTAR":0.00027632,"MEAN_MOTION_DOT":3.839e-5,"MEAN_MOTION_DDOT":0},{"OBJECT_NAME":"STARLINK-1244","OBJECT_ID":"2020-012U","EPOCH":"2024-10-27T19:26:32.879328","MEAN_MOTION":15.0642238,"ECCENTRICITY":0.0001212,"INCLINATION":53.0527,"RA_OF_ASC_NODE":121.6874,"ARG_OF_PERICENTER":89.3381,"MEAN_ANOMALY":270.7747,"EPHEMERIS_TYPE":0,"CLASSIFICATION_TYPE":"U","NORAD_CAT_ID":45196,"ELEMENT_SET_NO":999,"REV_AT_EPOCH":25889,"BSTAR":0.00080977,"MEAN_MOTION_DOT":0.00011808,"MEAN_MOTION_DDOT":0},{"OBJECT_NAME":"STARLINK-1269","OBJECT_ID":"2020-012V","EPOCH":"2024-10-27T19:10:40.006560","MEAN_MOTION":15.0639856,"ECCENTRICITY":0.0001295,"INCLINATION":53.053,"RA_OF_ASC_NODE":121.7369,"ARG_OF_PERICENTER":83.6505,"MEAN_ANOMALY":276.4631,"EPHEMERIS_TYPE":0,"CLASSIFICATION_TYPE":"U","NORAD_CAT_ID":45197,"ELEMENT_SET_NO":999,"REV_AT_EPOCH":25888,"BSTAR":0.00062908,"MEAN_MOTION_DOT":9.101e-5,"MEAN_MOTION_DDOT":0},{"OBJECT_NAME":"STARLINK-1154","OBJECT_ID":"2020-012W","EPOCH":"2024-10-27T10:59:39.962688","MEAN_MOTION":15.06407532,"ECCENTRICITY":0.0001349,"INCLINATION":53.0549,"RA_OF_ASC_NODE":103.2649,"ARG_OF_PERICENTER":107.2056,"MEAN_ANOMALY":252.908,"EPHEMERIS_TYPE":0,"CLASSIFICATION_TYPE":"U","NORAD_CAT_ID":45198,"ELEMENT_SET_NO":999,"REV_AT_EPOCH":25996,"BSTAR":0.00017098,"MEAN_MOTION_DOT":2.267e-5,"MEAN_MOTION_DDOT":0},{"OBJECT_NAME":"STARLINK-1199","OBJECT_ID":"2020-012Z","EPOCH":"2024-10-27T11:15:35.968320","MEAN_MOTION":15.06396783,"ECCENTRICITY":0.0001451,"INCLINATION":53.0534,"RA_OF_ASC_NODE":103.2171,"ARG_OF_PERICENTER":84.6631,"MEAN_ANOMALY":275.4524,"EPHEMERIS_TYPE":0,"CLASSIFICATION_TYPE":"U","NORAD_CAT_ID":45201,"ELEMENT_SET_NO":999,"REV_AT_EPOCH":26002,"BSTAR":0.00018486,"MEAN_MOTION_DOT":2.473e-5,"MEAN_MOTION_DDOT":0},{"OBJECT_NAME":"STARLINK-1206","OBJECT_ID":"2020-012AC","EPOCH":"2024-10-27T19:50:26.061792","MEAN_MOTION":15.06420719,"ECCENTRICITY":0.000139,"INCLINATION":53.0535,"RA_OF_ASC_NODE":101.6096,"ARG_OF_PERICENTER":88.0239,"MEAN_ANOMALY":272.0909,"EPHEMERIS_TYPE":0,"CLASSIFICATION_TYPE":"U","NORAD_CAT_ID":45204,"ELEMENT_SET_NO":999,"REV_AT_EPOCH":25914,"BSTAR":0.00056663,"MEAN_MOTION_DOT":8.173e-5,"MEAN_MOTION_DDOT":0},{"OBJECT_NAME":"STARLINK-1208","OBJECT_ID":"2020-012AD","EPOCH":"2024-10-27T17:11:12.534720","MEAN_MOTION":15.06418396,"ECCENTRICITY":0.0001236,"INCLINATION":53.0529,"RA_OF_ASC_NODE":102.1069,"ARG_OF_PERICENTER":81.8926,"MEAN_ANOMALY":278.2203,"EPHEMERIS_TYPE":0,"CLASSIFICATION_TYPE":"U","NORAD_CAT_ID":45205,"ELEMENT_SET_NO":999,"REV_AT_EPOCH":25913,"BSTAR":0.00090889,"MEAN_MOTION_DOT":0.00013289,"MEAN_MOTION_DDOT":0},{"OBJECT_NAME":"STARLINK-1209","OBJECT_ID":"2020-012AE","EPOCH":"2024-10-27T09:53:18.806208","MEAN_MOTION":15.06414376,"ECCENTRICITY":0.0001446,"INCLINATION":53.0553,"RA_OF_ASC_NODE":83.4704,"ARG_OF_PERICENTER":96.6064,"MEAN_ANOMALY":263.509,"EPHEMERIS_TYPE":0,"CLASSIFICATION_TYPE":"U","NORAD_CAT_ID":45206,"ELEMENT_SET_NO":999,"REV_AT_EPOCH":25934,"BSTAR":0.00044125,"MEAN_MOTION_DOT":6.299e-5,"MEAN_MOTION_DDOT":0}]