STARLINK-1216           
1 45185U 20012H   24301.23512109  .00018511  00000+0  12578-2 0  9991
2 45185  53.0525 124.2683 0001270  76.0712 284.0418 15.06416628259062
STARLINK-1224           
1 45186U 20012J   24301.24985587  .00011237  00000+0  77165-3 0  9999
2 45186  53.0531 124.2020 0001399  82.8695 277.2453 15.06419137259658
STARLINK-1225           
1 45187U 20012K   24301.51892138  .00007377  00000+0  51367-3 0  9995
2 45187  53.0532 122.9939 0001237  90.6114 269.5017 15.06397919259741
STARLINK-1228           
1 45188U 20012L   24301.78331718  .00009947  00000+0  68538-3 0  9990
2 45188  53.0534  81.4864 0001259  94.3455 265.7678 15.06418879259361
STARLINK-1230           
1 45189U 20012M   24301.78798783  .00012885  00000+0  88200-3 0  9993
2 45189  53.0546 121.7871 0001489 100.1654 259.9503 15.06414766258859
STARLINK-1234           
1 45190U 20012N   24301.40834517  .00011536  00000+0  79166-3 0  9993
2 45190  53.0542  83.4885 0001403  79.2508 280.8639 15.06419627260190
STARLINK-1236           
1 45191U 20012P   24301.52997236  .00003580  00000+0  25901-3 0  9993
2 45191  53.0544 122.9440 0001301  88.5882 271.5256 15.06416057256960
STARLINK-1237           
1 45192U 20012Q   24301.50417566  .00001723  00000+0  13455-3 0  9993
2 45192  53.0541 123.0584 0001437 100.3115 259.8036 15.06404302259756
STARLINK-1240           
1 45194U 20012S   24301.76219075  .00003839  00000+0  27632-3 0  9990
2 45194  53.0511 121.8990 0001088 103.3933 256.7177 15.06418588258858
STARLINK-1244           
1 45196U 20012U   24301.81010277  .00011808  00000+0  80977-3 0  9997
2 45196  53.0527 121.6874 0001212  89.3381 270.7747 15.06422380258893
STARLINK-1269           
1 45197U 20012V   24301.79907415  .00009101  00000+0  62908-3 0  9991
2 45197  53.0530 121.7369 0001295  83.6505 276.4631 15.06398560258880
STARLINK-1154           
1 45198U 20012W   24301.45810142  .00002267  00000+0  17098-3 0  9991
2 45198  53.0549 103.2649 0001349 107.2056 252.9080 15.06407532259968
STARLINK-1199           
1 45201U 20012Z   24301.46916630  .00002473  00000+0  18486-3 0  9997
2 45201  53.0534 103.2171 0001451  84.6631 275.4524 15.06396783260025
STARLINK-1206           
1 45204U 20012AC  24301.82669053  .00008173  00000+0  56663-3 0  9996
2 45204  53.0535 101.6096 0001390  88.0239 272.0909 15.06420719259149
STARLINK-1208           
1 45205U 20012AD  24301.71611730  .00013289  00000+0  90889-3 0  9996
2 45205  53.0529 102.1069 0001236  81.8926 278.2203 15.06418396259134
STARLINK-1209           
1 45206U 20012AE  24301.41202322  .00006299  00000+0  44125-3 0  9992
2 45206  53.0553  83.4704 0001446  96.6064 263.5090 15.06414376259347
